[{"OBJECT_NAME":"FENGYUN 3H","OBJECT_ID":"2025-219A","EPOCH":"2026-03-09T21:29:42.222912","MEAN_MOTION":14.19932737,"ECCENTRICITY":0.00012969,"INCLINATION":98.6685,"RA_OF_ASC_NODE":11.64,"ARG_OF_PERICENTER":61.8301,"MEAN_ANOMALY":298.3007,"EPHEMERIS_TYPE":0,"CLASSIFICATION_TYPE":"U","NORAD_CAT_ID":65815,"ELEMENT_SET_NO":999,"REV_AT_EPOCH":2329,"BSTAR":7.8784575e-5,"MEAN_MOTION_DOT":1.24e-6,"MEAN_MOTION_DDOT":0},{"OBJECT_NAME":"METEOR 1-17 DEB","OBJECT_ID":"1974-025J","EPOCH":"2026-02-25T15:26:55.801824","MEAN_MOTION":14.20807301,"ECCENTRICITY":0.00105746,"INCLINATION":81.2004,"RA_OF_ASC_NODE":36.5695,"ARG_OF_PERICENTER":320.5555,"MEAN_ANOMALY":39.485,"EPHEMERIS_TYPE":0,"CLASSIFICATION_TYPE":"U","NORAD_CAT_ID":57543,"ELEMENT_SET_NO":999,"REV_AT_EPOCH":14172,"BSTAR":0.0023644778,"MEAN_MOTION_DOT":5.121e-5,"MEAN_MOTION_DDOT":0}]
